ION SCV-005             
1 52163U 22033G   24188.84632461  .00344154  51725-4  68728-3 0  9993
2 52163  97.3372 310.3354 0010252 227.4433 132.5981 15.99724963128829
MP42                    
1 52169U 22033N   24190.19430185  .00053567  00000+0  68533-3 0  9993
2 52169  97.3234 278.4937 0006770 191.0899 169.0209 15.59029370126917
BRO-7                   
1 52174U 22033T   24190.18714366  .00018993  00000+0  45021-3 0  9995
2 52174  97.3265 274.0225 0008994 199.6582 160.4320 15.41747845126613
SUCHAI-2                
1 52192U 22033AM  24189.77120288  .00069096  00000+0  81664-3 0  9995
2 52192  97.3078 277.5022 0005271 196.1624 163.9466 15.61067346126894
GLOBAL-18               
1 52196U 22034B   24189.00603486  .00020938  00000+0  54181-3 0  9998
2 52196  52.9921  16.9243 0002408  42.8211 317.2979 15.39054996127559
GLOBAL-20               
1 52197U 22034C   24189.85971367  .00000032  00000+0  86251-5 0  9996
2 52197  52.9930   0.7632 0007667 251.4845 108.5330 15.49872955127855
GAOFEN-3 03             
1 52200U 22035A   24190.18625940  .00000097  00000+0  42540-4 0  9996
2 52200  98.4111 197.8228 0001640 105.1885 254.9486 14.42222151118665
DAQI 1                  
1 52257U 22039A   24190.14575491  .00000546  00000+0  12933-3 0  9994
2 52257  98.2106 127.5349 0000749 197.7846 162.3326 14.57783388118649
JILIN-1 GAOFEN 4A       
1 52388U 22046A   24190.22399655  .00013738  00000+0  60813-3 0  9999
2 52388  97.5032 277.1811 0016371  41.5965 318.6513 15.21655846120956
JILIN-1 GAOFEN 3D05     
1 52390U 22046C   24190.20069801  .00014607  00000+0  63535-3 0  9997
2 52390  97.4992 279.1483 0003822 156.2763 203.8650 15.22354959121115
JILIN-1 GAOFEN 3D07     
1 52392U 22046E   24190.19948554  .00014459  00000+0  65237-3 0  9994
2 52392  97.5066 279.9461 0002987 150.1367 210.0040 15.21107567121122
BRO-6                   
1 52422U 22047AE  24190.16525117  .00008365  00000+0  35035-3 0  9994
2 52422  97.3966 269.7361 0008190  96.4444 263.7725 15.23761833122309
JILIN-1 GAOFEN 3D27     
1 52444U 22048B   24190.17299437  .00014623  00000+0  62845-3 0  9996
2 52444  97.5987 268.9343 0010488  59.3868 300.8401 15.22722974120416
JILIN-1 GAOFEN 3D28     
1 52445U 22048C   24190.21531010  .00013341  00000+0  57107-3 0  9999
2 52445  97.5960 268.7640 0010775  55.6397 304.5857 15.22877932120423
PTD-3 (TYVAK-0125)      
1 52734U 22057C   24189.82281885  .00098446  00000+0  79878-3 0  9995
2 52734  97.5547 330.3138 0001611 104.7251 255.4189 15.70435152118636
OP15 FLT2 (TYVAK-0821)  
1 52735U 22057D   24189.86891699  .00102978  00000+0  11558-2 0  9996
2 52735  97.5617 321.7118 0001594 116.3963 243.7458 15.62303157118073
PLANETUM1               
1 52738U 22057G   24189.83162259  .00042713  00000+0  95603-3 0  9993
2 52738  97.5687 316.7481 0004652  87.8700 272.3080 15.43335272117754
CONNECTA T1.1           
1 52739U 22057H   24189.88422866  .00014444  00000+0  56083-3 0  9991
2 52739  97.5822 311.7214 0008817  96.0693 264.1550 15.26158559117365
OP15 FLT1 (TYVAK-0820)  
1 52741U 22057K   24189.84953793  .00088563  00000+0  11754-2 0  9996
2 52741  97.5742 321.5510 0002674  94.1000 266.0561 15.57936232118004
CENTAURI-5 (TYVAK-0212) 
1 52742U 22057L   24189.86729516  .00075124  00000+0  90889-3 0  9999
2 52742  97.5696 324.6264 0002640  98.0694 262.0862 15.60443201118258
VIGORIDE-3              
1 52760U 22057AE  24189.42276296  .00003315  00000+0  16542-3 0  9990
2 52760  97.5796 308.6615 0012089  83.1222 277.1387 15.18167335117141
ION SCV-006             
1 52761U 22057AF  24189.31813405  .00006400  00000+0  27522-3 0  9996
2 52761  97.5325 308.3542 0020054 121.1077 239.2130 15.22819273117222
SHERPA-AC1              
1 52763U 22057AH  24189.33125856  .00005703  00000+0  25864-3 0  9998
2 52763  97.5833 310.0459 0011947  78.7479 281.5098 15.21172218117211
PLATFORM-1              
1 52770U 22057AQ  24189.28641087  .00011985  00000+0  43270-3 0  9999
2 52770  97.5779 313.8155 0010523  56.6465 303.5780 15.28596627117484
OMNI-L2                 
1 52771U 22057AR  24190.15656912  .00001197  00000+0  14514-3 0  9994
2 52771  97.5276 286.6095 0009617 120.8511 239.3652 14.85288895115899
STEP CUBE LAB-II        
1 52897U 22065D   24189.99560492  .00001483  00000+0  31520-3 0  9993
2 52897  98.1238 330.5388 0010137  87.4194 272.8167 14.60462001107868
RANDEV                  
1 52898U 22065E   24190.21342315  .00001333  00000+0  28331-3 0  9993
2 52898  98.1232 330.8561 0009441  88.5911 271.6371 14.60640619107625
SNUGLITE-II             
1 52899U 22065F   24189.87693946  .00001663  00000+0  34898-3 0  9994
2 52899  98.1223 330.6245 0008985  89.9980 270.2251 14.60919737107280
MIMAN                   
1 52900U 22065G   24189.34375012  .00000902  00000+0  19835-3 0  9999
2 52900  98.1253 329.5880 0009011  86.8439 273.3792 14.59765533106794
SLINGSHOT 1             
1 52947U 22074D   24189.81205166  .00078316  00000+0  53432-3 0  9999
2 52947  44.9854 346.6343 0014023 266.5787  93.3509 15.73815841113459
