OBJECT_NAME,OBJECT_ID,EPOCH,MEAN_MOTION,ECCENTRICITY,INCLINATION,RA_OF_ASC_NODE,ARG_OF_PERICENTER,MEAN_ANOMALY,EPHEMERIS_TYPE,CLASSIFICATION_TYPE,NORAD_CAT_ID,ELEMENT_SET_NO,REV_AT_EPOCH,BSTAR,MEAN_MOTION_DOT,MEAN_MOTION_DDOT
ION SCV-005,2022-033G,2024-07-06T20:18:42.446304,15.99724963,.0010252,97.3372,310.3354,227.4433,132.5981,0,U,52163,999,12882,.68728E-3,.344154E-2,.51725E-4
MP42,2022-033N,2024-07-08T04:39:47.679840,15.59029370,.000677,97.3234,278.4937,191.0899,169.0209,0,U,52169,999,12691,.68533E-3,.53567E-3,0
BRO-7,2022-033T,2024-07-08T04:29:29.212224,15.41747845,.0008994,97.3265,274.0225,199.6582,160.4320,0,U,52174,999,12661,.45021E-3,.18993E-3,0
SUCHAI-2,2022-033AM,2024-07-07T18:30:31.928832,15.61067346,.0005271,97.3078,277.5022,196.1624,163.9466,0,U,52192,999,12689,.81664E-3,.69096E-3,0
GLOBAL-18,2022-034B,2024-07-07T00:08:41.411904,15.39054996,.0002408,52.9921,16.9243,42.8211,317.2979,0,U,52196,999,12755,.54181E-3,.20938E-3,0
GLOBAL-20,2022-034C,2024-07-07T20:37:59.261088,15.49872955,.0007667,52.9930,0.7632,251.4845,108.5330,0,U,52197,999,12785,.86251E-5,.32E-6,0
GAOFEN-3 03,2022-035A,2024-07-08T04:28:12.812160,14.42222151,.000164,98.4111,197.8228,105.1885,254.9486,0,U,52200,999,11866,.4254E-4,.97E-6,0
DAQI 1,2022-039A,2024-07-08T03:29:53.224224,14.57783388,.0000749,98.2106,127.5349,197.7846,162.3326,0,U,52257,999,11864,.12933E-3,.546E-5,0
JILIN-1 GAOFEN 4A,2022-046A,2024-07-08T05:22:33.301920,15.21655846,.0016371,97.5032,277.1811,41.5965,318.6513,0,U,52388,999,12095,.60813E-3,.13738E-3,0
JILIN-1 GAOFEN 3D05,2022-046C,2024-07-08T04:49:00.308064,15.22354959,.0003822,97.4992,279.1483,156.2763,203.8650,0,U,52390,999,12111,.63535E-3,.14607E-3,0
JILIN-1 GAOFEN 3D07,2022-046E,2024-07-08T04:47:15.550656,15.21107567,.0002987,97.5066,279.9461,150.1367,210.0040,0,U,52392,999,12112,.65237E-3,.14459E-3,0
BRO-6,2022-047AE,2024-07-08T03:57:57.701088,15.23761833,.000819,97.3966,269.7361,96.4444,263.7725,0,U,52422,999,12230,.35035E-3,.8365E-4,0
JILIN-1 GAOFEN 3D27,2022-048B,2024-07-08T04:09:06.713568,15.22722974,.0010488,97.5987,268.9343,59.3868,300.8401,0,U,52444,999,12041,.62845E-3,.14623E-3,0
JILIN-1 GAOFEN 3D28,2022-048C,2024-07-08T05:10:02.792640,15.22877932,.0010775,97.5960,268.7640,55.6397,304.5857,0,U,52445,999,12042,.57107E-3,.13341E-3,0
PTD-3 (TYVAK-0125),2022-057C,2024-07-07T19:44:51.548640,15.70435152,.0001611,97.5547,330.3138,104.7251,255.4189,0,U,52734,999,11863,.79878E-3,.98446E-3,0
OP15 FLT2 (TYVAK-0821),2022-057D,2024-07-07T20:51:14.427936,15.62303157,.0001594,97.5617,321.7118,116.3963,243.7458,0,U,52735,999,11807,.11558E-2,.102978E-2,0
PLANETUM1,2022-057G,2024-07-07T19:57:32.191776,15.43335272,.0004652,97.5687,316.7481,87.8700,272.3080,0,U,52738,999,11775,.95603E-3,.42713E-3,0
CONNECTA T1.1,2022-057H,2024-07-07T21:13:17.356224,15.26158559,.0008817,97.5822,311.7214,96.0693,264.1550,0,U,52739,999,11736,.56083E-3,.14444E-3,0
OP15 FLT1 (TYVAK-0820),2022-057K,2024-07-07T20:23:20.077152,15.57936232,.0002674,97.5742,321.5510,94.1000,266.0561,0,U,52741,999,11800,.11754E-2,.88563E-3,0
CENTAURI-5 (TYVAK-0212),2022-057L,2024-07-07T20:48:54.301824,15.60443201,.000264,97.5696,324.6264,98.0694,262.0862,0,U,52742,999,11825,.90889E-3,.75124E-3,0
VIGORIDE-3,2022-057AE,2024-07-07T10:08:46.719744,15.18167335,.0012089,97.5796,308.6615,83.1222,277.1387,0,U,52760,999,11714,.16542E-3,.3315E-4,0
ION SCV-006,2022-057AF,2024-07-07T07:38:06.781920,15.22819273,.0020054,97.5325,308.3542,121.1077,239.2130,0,U,52761,999,11722,.27522E-3,.64E-4,0
SHERPA-AC1,2022-057AH,2024-07-07T07:57:00.739584,15.21172218,.0011947,97.5833,310.0459,78.7479,281.5098,0,U,52763,999,11721,.25864E-3,.5703E-4,0
PLATFORM-1,2022-057AQ,2024-07-07T06:52:25.899168,15.28596627,.0010523,97.5779,313.8155,56.6465,303.5780,0,U,52770,999,11748,.4327E-3,.11985E-3,0
OMNI-L2,2022-057AR,2024-07-08T03:45:27.571968,14.85288895,.0009617,97.5276,286.6095,120.8511,239.3652,0,U,52771,999,11589,.14514E-3,.1197E-4,0
STEP CUBE LAB-II,2022-065D,2024-07-07T23:53:40.265088,14.60462001,.0010137,98.1238,330.5388,87.4194,272.8167,0,U,52897,999,10786,.3152E-3,.1483E-4,0
RANDEV,2022-065E,2024-07-08T05:07:19.760160,14.60640619,.0009441,98.1232,330.8561,88.5911,271.6371,0,U,52898,999,10762,.28331E-3,.1333E-4,0
SNUGLITE-II,2022-065F,2024-07-07T21:02:47.569344,14.60919737,.0008985,98.1223,330.6245,89.9980,270.2251,0,U,52899,999,10728,.34898E-3,.1663E-4,0
MIMAN,2022-065G,2024-07-07T08:15:00.010368,14.59765533,.0009011,98.1253,329.5880,86.8439,273.3792,0,U,52900,999,10679,.19835E-3,.902E-5,0
SLINGSHOT 1,2022-074D,2024-07-07T19:29:21.263424,15.73815841,.0014023,44.9854,346.6343,266.5787,93.3509,0,U,52947,999,11345,.53432E-3,.78316E-3,0
